*******************************************************************************
JPL/HORIZONS               623 Chimaera (A907 BC)          2020-Jun-22 09:16:53
Rec #:     623 (+COV) Soln.date: 2020-May-20_01:09:21   # obs: 2325 (1909-2020)
 
IAU76/J2000 helio. ecliptic osc. elements (au, days, deg., period=Julian yrs):
 
  EPOCH=  2456170.5 ! 2012-Aug-31.00 (TDB)         Residual RMS= .30107
   EC= .1123304309279761   QR= 2.185265361439074   TP= 2456871.4830276147
   OM= 308.35791004928     W=  124.4859843514477   IN= 14.12732208757607
   A= 2.461800468978075    MA= 181.1321438916747   ADIST= 2.738335576517076
   PER= 3.86267            N= .255167164           ANGMOM= .026819485
   DAN= 2.59584            DDN= 2.28538            L= 73.6695383
   B= 11.6062307           MOID= 1.23237002        TP= 2014-Aug-01.9830276147
 
Asteroid physical parameters (km, seconds, rotational period in hours):
   GM= n.a.                RAD= 22.045             ROTPER= 14.635
   H= 10.8                 G= .150                 B-V= .714
                           ALBEDO= .0372           STYP= XC
 
ASTEROID comments: 
1: soln ref.= JPL#71, OCC=0
2: source=ORB
*******************************************************************************
 
 
*******************************************************************************
Ephemeris / WWW_USER Mon Jun 22 09:16:54 2020 Pasadena, USA      / Horizons
*******************************************************************************
Target body name: 623 Chimaera (A907 BC)          {source: JPL#71}
Center body name: Solar System Barycenter (0)     {source: DE431}
Center-site name: BODY CENTER
*******************************************************************************
Start time      : A.D. 1969-Jun-28 00:00:00.0000 TDB
Stop  time      : A.D. 2071-May-04 00:00:00.0000 TDB
Step-size       : 7200 minutes
*******************************************************************************
Center geodetic : 0.00000000,0.00000000,0.0000000 {E-lon(deg),Lat(deg),Alt(km)}
Center cylindric: 0.00000000,0.00000000,0.0000000 {E-lon(deg),Dxy(km),Dz(km)}
Center radii    : (undefined)                                                  
Small perturbers: Yes                             {source: SB431-N16}
Output units    : AU-D
Output type     : GEOMETRIC cartesian states
Output format   : 2 (position and velocity)
Reference frame : Ecliptic of J2000.0
*******************************************************************************
Initial IAU76/J2000 heliocentric ecliptic osculating elements (au, days, deg.):
  EPOCH=  2456170.5 ! 2012-Aug-31.00 (TDB)         Residual RMS= .30107        
   EC= .1123304309279761   QR= 2.185265361439074   TP= 2456871.4830276147      
   OM= 308.35791004928     W=  124.4859843514477   IN= 14.12732208757607       
  Equivalent ICRF heliocentric equatorial cartesian coordinates (au, au/d):
   X=-7.131707878055071E-01  Y=-2.156846042068066E+00  Z=-1.528936019706573E+00
  VX= 9.273690179435492E-03 VY=-3.147056546249791E-03 VZ= 1.490232461111048E-04
Asteroid physical parameters (km, seconds, rotational period in hours):        
   GM= n.a.                RAD= 22.045             ROTPER= 14.635              
   H= 10.8                 G= .150                 B-V= .714                   
                           ALBEDO= .0372           STYP= XC                    
*******************************************************************************
            JDTDB,            Calendar Date (TDB),        delta-T,                      X,                      Y,                      Z,                     VX,                     VY,                     VZ,
******************************************************************************************************************************************************************************************************************
$$SOE
2445580.500000000, A.D. 1983-Sep-03 00:00:00.0000,      54.182562,  7.221287388318497E-01,  2.010875301953085E+00,  4.570000438806712E-01, -1.142048875950058E-02,  4.368420866558607E-03, -1.563833580267703E-03,
2445585.500000000, A.D. 1983-Sep-08 00:00:00.0000,      54.182493,  6.647751027212432E-01,  2.031995440039589E+00,  4.490175463515407E-01, -1.151959956017174E-02,  4.079108682172327E-03, -1.628978711082297E-03,
2445590.500000000, A.D. 1983-Sep-13 00:00:00.0000,      54.182436,  6.069464871493954E-01,  2.051661364358329E+00,  4.407121769189047E-01, -1.161046440955550E-02,  3.786782004852247E-03, -1.692971806720390E-03,
2445595.500000000, A.D. 1983-Sep-18 00:00:00.0000,      54.182388,  5.486843538244641E-01,  2.069858705886281E+00,  4.320898523893243E-01, -1.169299254738652E-02,  3.491722941516358E-03, -1.755750498530181E-03,
2445600.500000000, A.D. 1983-Sep-23 00:00:00.0000,      54.182350,  4.900305877744662E-01,  2.086574516538400E+00,  4.231567970372742E-01, -1.176710543954447E-02,  3.194217649873702E-03, -1.817254191982863E-03,
2445605.500000000, A.D. 1983-Sep-28 00:00:00.0000,      54.182325,  4.310274357503494E-01,  2.101797287752501E+00,  4.139195333805616E-01, -1.183273695703358E-02,  2.894555668799152E-03, -1.877424207075936E-03,
2445610.500000000, A.D. 1983-Oct-03 00:00:00.0000,      54.182314,  3.717174438483051E-01,  2.115516965698766E+00,  4.043848722718812E-01, -1.188983350901087E-02,  2.593029238234334E-03, -1.936203911430878E-03,
2445615.500000000, A.D. 1983-Oct-08 00:00:00.0000,      54.182316,  3.121433945838221E-01,  2.127724963065205E+00,  3.945599023428853E-01, -1.193835412924390E-02,  2.289932609737391E-03, -1.993538846234566E-03,
2445620.500000000, A.D. 1983-Oct-13 00:00:00.0000,      54.182331,  2.523482436448004E-01,  2.138414167377525E+00,  3.844519788375137E-01, -1.197827051848047E-02,  1.985561350779939E-03, -2.049376844283678E-03,
2445625.500000000, A.D. 1983-Oct-18 00:00:00.0000,      54.182356,  1.923750565419952E-01,  2.147578945841758E+00,  3.740687118792027E-01, -1.200956704265966E-02,  1.680211650852254E-03, -2.103668138137521E-03,
2445630.500000000, A.D. 1983-Oct-23 00:00:00.0000,      54.182393,  1.322669453854066E-01,  2.155215146731838E+00,  3.634179542229215E-01, -1.203224068405881E-02,  1.374179633440557E-03, -2.156365458174857E-03,
2445635.500000000, A.D. 1983-Oct-28 00:00:00.0000,      54.182442,  7.206700602207773E-02,  2.161320097352304E+00,  3.525077885405575E-01, -1.204630094593216E-02,  1.067760674305387E-03, -2.207424121243081E-03,
2445640.500000000, A.D. 1983-Nov-02 00:00:00.0000,      54.182504,  1.181825576249715E-02,  2.165892598612742E+00,  3.413465142866732E-01, -1.205176971274718E-02,  7.612487284225983E-04, -2.256802109807133E-03,
2445645.500000000, A.D. 1983-Nov-07 00:00:00.0000,      54.182579, -4.843642808689080E-02,  2.168932916265318E+00,  3.299426341929264E-01, -1.204868106780945E-02,  4.549356688006324E-04, -2.304460141288029E-03,
2445650.500000000, A.D. 1983-Nov-12 00:00:00.0000,      54.182664, -1.086543686770311E-01,  2.170442768872455E+00,  3.183048404409448E-01, -1.203708107037647E-02,  1.491106402415165E-04, -2.350361727282684E-03,
2445655.500000000, A.D. 1983-Nov-17 00:00:00.0000,      54.182758, -1.687931488591864E-01,  2.170425312587460E+00,  3.064420005652976E-01, -1.201702749482365E-02, -1.559405686587995E-04, -2.394473222216747E-03,
2445660.500000000, A.D. 1983-Nov-22 00:00:00.0000,      54.182860, -2.288106690342405E-01,  2.168885122848471E+00,  2.943631431407523E-01, -1.198858953442835E-02, -4.599361315271196E-04, -2.436763860893060E-03,
2445665.500000000, A.D. 1983-Nov-27 00:00:00.0000,      54.182971, -2.886652034370888E-01,  2.165828173105325E+00,  2.820774433104070E-01, -1.195184747194158E-02, -7.625987644240693E-04, -2.477205784557326E-03,
2445670.500000000, A.D. 1983-Dec-02 00:00:00.0000,      54.183092, -3.483154546945662E-01,  2.161261810716844E+00,  2.695942082122756E-01, -1.190689231871055E-02, -1.063656276997375E-03, -2.515774055490986E-03,
2445675.500000000, A.D. 1983-Dec-07 00:00:00.0000,      54.183221, -4.077206065039755E-01,  2.155194730169912E+00,  2.569228623607924E-01, -1.185382542411143E-02, -1.362842092319378E-03, -2.552446660541439E-03,
2445680.500000000, A.D. 1983-Dec-12 00:00:00.0000,      54.183355, -4.668403742889256E-01,  2.147636943780683E+00,  2.440729330370591E-01, -1.179275805744388E-02, -1.659895734029112E-03, -2.587204504207341E-03,
2445685.500000000, A.D. 1983-Dec-17 00:00:00.0000,      54.183492, -5.256350537012257E-01,  2.138599750043619E+00,  2.310540357384225E-01, -1.172381096494193E-02, -1.954563279929426E-03, -2.620031391917793E-03,
2445690.500000000, A.D. 1983-Dec-22 00:00:00.0000,      54.183633, -5.840655668520333E-01,  2.128095699797934E+00,  2.178758597350267E-01, -1.164711390501310E-02, -2.246597781297227E-03, -2.650914004045454E-03,
2445695.500000000, A.D. 1983-Dec-27 00:00:00.0000,      54.183777, -6.420935061717422E-01,  2.116138560385288E+00,  2.045481537785299E-01, -1.156280516504342E-02, -2.535759646852756E-03, -2.679841861099553E-03,
2445700.500000000, A.D. 1984-Jan-01 00:00:00.0000,      54.183924, -6.996811758138775E-01,  2.102743277978766E+00,  1.910807120059085E-01, -1.147103106253738E-02, -2.821816990129605E-03, -2.706807280597236E-03,
2445705.500000000, A.D. 1984-Jan-06 00:00:00.0000,      54.184073, -7.567916305287294E-01,  2.087925938265773E+00,  1.774833600782265E-01, -1.137194543212553E-02, -3.104545940967991E-03, -2.731805326337019E-03,
2445710.500000000, A.D. 1984-Jan-11 00:00:00.0000,      54.184221, -8.133887119427694E-01,  2.071703725656587E+00,  1.637659415908475E-01, -1.126570910180131E-02, -3.383730924103769E-03, -2.754833750567067E-03,
2445715.500000000, A.D. 1984-Jan-16 00:00:00.0000,      54.184365, -8.694370822054516E-01,  2.054094881183651E+00,  1.499383047906916E-01, -1.115248936453287E-02, -3.659164903570313E-03, -2.775892928995738E-03,
